GAOFEN-11 01            
1 43585U 18063A   26160.96687277  .00009190  00000+0  13815-3 0  9999
2 43585  97.1298 227.8667 0003896  24.2404 335.9033 15.55073232439222
ICESAT-2                
1 43613U 18070A   26160.82131491  .00009509  00000+0  34504-3 0  9998
2 43613  92.0066 288.9901 0005355 116.1324 244.0477 15.28287028431330
HYSIS                   
1 43719U 18096A   26160.97086630  .00000995  00000+0  14278-3 0  9999
2 43719  97.9838 227.7753 0001735 110.4734 249.6664 14.78681609406354
KAZSTSAT                
1 43783U 18099AB  26160.35856570  .00001197  00000+0  10111-3 0  9990
2 43783  97.4264 192.6432 0007945  90.1061 270.1074 14.99843960410131
SAUDISAT 5A             
1 43831U 18102A   26160.96127406  .00005140  00000+0  19074-3 0  9994
2 43831  97.3073 222.6816 0010498 151.6457 208.5356 15.27973165414574
SAUDISAT 5B             
1 43833U 18102C   26160.98134138  .00004960  00000+0  18270-3 0  9994
2 43833  97.3180 225.7578 0011137 154.1108 206.0692 15.28233961414699
GAOFEN-10R              
1 44622U 19066A   26160.93456127  .00001086  00000+0  14023-3 0  9999
2 44622  98.0495 114.4611 0006184 147.6785 212.4808 14.83045002361305
CARTOSAT-3              
1 44804U 19081A   26160.97818381  .00003367  00000+0  16281-3 0  9998
2 44804  97.4308 222.9607 0012565 172.6360 187.5062 15.19229818362371
GAOFEN-12 01            
1 44819U 19082A   26160.91538557  .00000349  00000+0  52298-4 0  9999
2 44819  97.8106 167.4868 0002454  78.6167 281.5321 14.80452572353011
CSG-1                   
1 44873U 19092A   26160.89522068  .00000405  00000+0  57403-4 0  9993
2 44873  97.8887 344.6035 0001432  90.7054 269.4324 14.82158892350393
NEMO-HD                 
1 46277U 20061F   26160.93836219  .00010620  00000+0  23131-3 0  9992
2 46277  97.1926 222.9649 0002522  88.6251 271.5287 15.44448780320863
SENTINEL-6A             
1 46984U 20086A   26160.66827004 -.00000029  00000+0  13791-3 0  9990
2 46984  66.0386 150.6692 0007955 270.3183  89.6920 12.80929829259360
CAS500-1                
1 47932U 21022A   26160.95397166  .00001431  00000+0  69347-4 0  9994
2 47932  97.3909  56.3531 0004354 335.4623  24.6404 15.20120325289661
GAOFEN-12 02            
1 48079U 21026A   26160.92566657  .00000329  00000+0  50076-4 0  9995
2 48079  97.9920 159.1360 0003358 253.7859 106.2983 14.80290455280680
PLEIADES NEO 3          
1 48268U 21034A   26160.95964529  .00000868  00000+0  11692-3 0  9995
2 48268  97.8926 235.8303 0001387  88.3568 271.7804 14.81670890276583
PLEIADES NEO 4          
1 49070U 21073E   26159.98043271  .00001403  00000+0  18495-3 0  9997
2 49070  97.8928 234.8608 0001396  84.4017 275.7355 14.81666705260151
LANDSAT 9               
1 49260U 21088A   26160.78014721  .00000269  00000+0  69763-4 0  9996
2 49260  98.2279 231.0469 0001456  87.9628 272.1737 14.57105588249920
CSG-2                   
1 51444U 22008A   26160.92896488  .00000440  00000+0  61858-4 0  9998
2 51444  97.8891 344.6322 0001406  84.7352 275.4021 14.82151086235519
GAOFEN-12 03            
1 52912U 22069A   26160.95426778  .00000337  00000+0  51190-4 0  9993
2 52912  97.8288  49.0064 0001776 109.9243 250.2160 14.80021930213544
SWOT                    
1 54754U 22173A   26160.77136825  .00000063  00000+0  44498-4 0  9995
2 54754  77.6111  45.3214 0000225  97.7821 262.3356 14.00168637178113
GAOFEN-12 04            
1 57654U 23123A   26160.97189937  .00000885  00000+0  12327-3 0  9994
2 57654  97.9126  79.0932 0001787  86.4939 273.6477 14.80214806151563
PARS 1                  
1 59065U 24039Q   26160.93418197  .00010509  00000+0  22001-3 0  9992
2 59065  97.4818 141.6262 0011014 133.1944 227.0227 15.45574625127521
RESURS-P 4              
1 59371U 24061A   26160.94825032  .00002854  00000+0  94576-4 0  9999
2 59371  97.2745 108.9732 0001606 131.8027 228.3353 15.32090335122659
LEGION 1                
1 59625U 24081A   26160.77160763  .00003419  00000+0  17820-3 0  9991
2 59625  97.5018 238.7080 0010222  42.0557 318.1459 15.16615472116419
LEGION 2                
1 59626U 24081B   26160.80148688  .00003121  00000+0  16300-3 0  9990
2 59626  97.5017 238.8351 0011500   9.9647 350.1812 15.16595436116420
ALOS-4 (DAICHI-4)       
1 60182U 24123A   26160.92179840  .00001339  00000+0  18620-3 0  9999
2 60182  97.9242 258.1975 0001631  97.3123 262.8274 14.79471439104808
LEGION 3                
1 60452U 24146A   26160.68493430  .00004192  00000+0  22807-3 0  9993
2 60452  45.0014  70.7886 0006955 123.0397 237.1150 15.15982395100883
LEGION 4                
1 60453U 24146B   26160.42439093  .00002844  00000+0  15899-3 0  9996
2 60453  45.0004 164.0972 0014087 267.9650  91.9615 15.15976673 99691
SENTINEL-2C             
1 60989U 24157A   26160.69002353  .00000085  00000+0  49216-4 0  9992
2 60989  98.5691 235.5778 0001158  79.9257 280.2056 14.30815815 91912
IONOSFERA-M 1           
1 61735U 24199A   26160.87989173  .00000042  00000+0  38295-4 0  9990
2 61735  98.7183  34.1290 0001730 120.1454 239.9895 14.22752910126666
