OBJECT_NAME,OBJECT_ID,EPOCH,MEAN_MOTION,ECCENTRICITY,INCLINATION,RA_OF_ASC_NODE,ARG_OF_PERICENTER,MEAN_ANOMALY,EPHEMERIS_TYPE,CLASSIFICATION_TYPE,NORAD_CAT_ID,ELEMENT_SET_NO,REV_AT_EPOCH,BSTAR,MEAN_MOTION_DOT,MEAN_MOTION_DDOT
GAOFEN-11 01,2018-063A,2026-06-09T23:12:17.807328,15.55073232,.0003896,97.1298,227.8667,24.2404,335.9033,0,U,43585,999,43922,.138147E-3,.919E-4,0
ICESAT-2,2018-070A,2026-06-09T19:42:41.608224,15.28287028,.00053559,92.0066,288.9901,116.1324,244.0477,0,U,43613,999,43133,.34503742E-3,.9509E-4,0
HYSIS,2018-096A,2026-06-09T23:18:02.848320,14.78681609,.00017356,97.9838,227.7753,110.4734,249.6664,0,U,43719,999,40635,.1427788E-3,.995E-5,0
KAZSTSAT,2018-099AB,2026-06-09T08:36:20.076480,14.99843960,.00079452,97.4264,192.6432,90.1061,270.1074,0,U,43783,999,41013,.10111349E-3,.1197E-4,0
SAUDISAT 5A,2018-102A,2026-06-09T23:04:14.078784,15.27973165,.00104985,97.3073,222.6816,151.6457,208.5356,0,U,43831,999,41457,.19074396E-3,.514E-4,0
SAUDISAT 5B,2018-102C,2026-06-09T23:33:07.895232,15.28233961,.00111374,97.3180,225.7578,154.1108,206.0692,0,U,43833,999,41469,.1827018E-3,.496E-4,0
GAOFEN-10R,2019-066A,2026-06-09T22:25:46.093728,14.83045002,.00061847,98.0495,114.4611,147.6785,212.4808,0,U,44622,999,36130,.14022928E-3,.1086E-4,0
CARTOSAT-3,2019-081A,2026-06-09T23:28:35.081184,15.19229818,.00125656,97.4308,222.9607,172.6360,187.5062,0,U,44804,999,36237,.16280514E-3,.3367E-4,0
GAOFEN-12 01,2019-082A,2026-06-09T21:58:09.313248,14.80452572,.00024543,97.8106,167.4868,78.6167,281.5321,0,U,44819,999,35301,.52297711E-4,.349E-5,0
CSG-1,2019-092A,2026-06-09T21:29:07.066752,14.82158892,.00014324,97.8887,344.6035,90.7054,269.4324,0,U,44873,999,35039,.57402517E-4,.405E-5,0
NEMO-HD,2020-061F,2026-06-09T22:31:14.493216,15.44448780,.00025229,97.1926,222.9649,88.6251,271.5287,0,U,46277,999,32086,.2313082E-3,.1062E-3,0
SENTINEL-6A,2020-086A,2026-06-09T16:02:18.531456,12.80929829,.00079556,66.0386,150.6692,270.3183,89.6920,0,U,46984,999,25936,.13790707E-3,-.29E-6,0
CAS500-1,2021-022A,2026-06-09T22:53:43.151424,15.20120325,.00043545,97.3909,56.3531,335.4623,24.6404,0,U,47932,999,28966,.69347275E-4,.1431E-4,0
GAOFEN-12 02,2021-026A,2026-06-09T22:12:57.591648,14.80290455,.00033586,97.9920,159.1360,253.7859,106.2983,0,U,48079,999,28068,.50075674E-4,.329E-5,0
PLEIADES NEO 3,2021-034A,2026-06-09T23:01:53.353056,14.81670890,.00013875,97.8926,235.8303,88.3568,271.7804,0,U,48268,999,27658,.11692223E-3,.868E-5,0
PLEIADES NEO 4,2021-073E,2026-06-08T23:31:49.386144,14.81666705,.00013962,97.8928,234.8608,84.4017,275.7355,0,U,49070,999,26015,.18495191E-3,.1403E-4,0
LANDSAT 9,2021-088A,2026-06-09T18:43:24.718944,14.57105588,.00014563,98.2279,231.0469,87.9628,272.1737,0,U,49260,999,24992,.69762913E-4,.269E-5,0
CSG-2,2022-008A,2026-06-09T22:17:42.565632,14.82151086,.00014061,97.8891,344.6322,84.7352,275.4021,0,U,51444,999,23551,.6185751E-4,.44E-5,0
GAOFEN-12 03,2022-069A,2026-06-09T22:54:08.736192,14.80021930,.00017769,97.8288,49.0064,109.9243,250.2160,0,U,52912,999,21354,.51190189E-4,.337E-5,0
SWOT,2022-173A,2026-06-09T18:30:46.216800,14.00168637,.00002257,77.6111,45.3214,97.7821,262.3356,0,U,54754,999,17811,.44498192E-4,.63E-6,0
GAOFEN-12 04,2023-123A,2026-06-09T23:19:32.105568,14.80214806,.0001787,97.9126,79.0932,86.4939,273.6477,0,U,57654,999,15156,.12326714E-3,.885E-5,0
PARS 1,2024-039Q,2026-06-09T22:25:13.322208,15.45574625,.00110144,97.4818,141.6262,133.1944,227.0227,0,U,59065,999,12752,.22000693E-3,.10509E-3,0
RESURS-P 4,2024-061A,2026-06-09T22:45:28.827648,15.32090335,.00016064,97.2745,108.9732,131.8027,228.3353,0,U,59371,999,12265,.94576126E-4,.2854E-4,0
LEGION 1,2024-081A,2026-06-09T18:31:06.899232,15.16615472,.00102223,97.5018,238.7080,42.0557,318.1459,0,U,59625,999,11641,.17820426E-3,.3419E-4,0
LEGION 2,2024-081B,2026-06-09T19:14:08.466432,15.16595436,.00115003,97.5017,238.8351,9.9647,350.1812,0,U,59626,999,11642,.1630031E-3,.3121E-4,0
ALOS-4 (DAICHI-4),2024-123A,2026-06-09T22:07:23.381760,14.79471439,.0001631,97.9242,258.1975,97.3123,262.8274,0,U,60182,999,10480,.18619584E-3,.1339E-4,0
LEGION 3,2024-146A,2026-06-09T16:26:18.323520,15.15982395,.00069552,45.0014,70.7886,123.0397,237.1150,0,U,60452,999,10088,.22807104E-3,.4192E-4,0
LEGION 4,2024-146B,2026-06-09T10:11:07.376352,15.15976673,.00140873,45.0004,164.0972,267.9650,91.9615,0,U,60453,999,9969,.15898936E-3,.2844E-4,0
SENTINEL-2C,2024-157A,2026-06-09T16:33:38.032992,14.30815815,.00011582,98.5691,235.5778,79.9257,280.2056,0,U,60989,999,9191,.49215945E-4,.85E-6,0
IONOSFERA-M 1,2024-199A,2026-06-09T21:07:02.645472,14.22752910,.00017309,98.7183,34.1290,120.1454,239.9895,0,U,61735,999,12666,.38294676E-4,.42E-6,0
